NORAD_CAT_ID,OBJECT_NAME,OBJECT_TYPE,EPOCH,MEAN_MOTION,ECCENTRICITY,INCLINATION,RA_OF_ASC_NODE,ARG_OF_PERICENTER,MEAN_ANOMALY,BSTAR,MEAN_MOTION_DOT,MEAN_MOTION_DDOT,TLE_LINE0,TLE_LINE1,TLE_LINE2,SEMIMAJOR_AXIS,PERIOD,APOGEE,PERIGEE,DECAYED
52548.0,STARLINK-3931,PAYLOAD,2024-08-01 05:29:29,15.08836707,0.0001528,53.2149,237.3592,88.7611,271.3556,-2.8197e-06,-3.33e-06,0.0,0 STARLINK-3931,1 52548U 22051R   24214.22881430 -.00000333  00000-0 -28197-5 0  9998,2 52548  53.2149 237.3592 0001528  88.7611 271.3556 15.08836707123132,6917.89,95.438,540.813,538.698,0.0
52548.0,STARLINK-3931,PAYLOAD,2024-08-01 08:40:16,15.08837619,0.0001483,53.2157,236.7645,89.192,270.9242,3.3564e-05,2.46e-06,0.0,0 STARLINK-3931,1 52548U 22051R   24214.36129635  .00000246  00000-0  33564-4 0  9999,2 52548  53.2157 236.7645 0001483  89.1920 270.9242 15.08837619123085,6917.888,95.438,540.779,538.727,0.0
52548.0,STARLINK-3931,PAYLOAD,2024-08-01 18:12:34,15.08838709,0.000149,53.2158,234.9805,89.0084,271.1079,4.415e-06,-2.18e-06,0.0,0 STARLINK-3931,1 52548U 22051R   24214.75873662 -.00000218  00000-0  44150-5 0  9992,2 52548  53.2158 234.9805 0001490  89.0084 271.1079 15.08838709123141,6917.884,95.438,540.78,538.719,0.0
52548.0,STARLINK-3931,PAYLOAD,2024-08-02 08:31:02,15.08842833,0.0001485,53.2155,232.3045,90.3127,269.8035,7.2615e-05,8.68e-06,0.0,0 STARLINK-3931,1 52548U 22051R   24215.35489217  .00000868  00000-0  72615-4 0  9994,2 52548  53.2155 232.3045 0001485  90.3127 269.8035 15.08842833123300,6917.872,95.437,540.764,538.709,0.0
52548.0,STARLINK-3931,PAYLOAD,2024-08-02 18:03:21,15.08838345,0.0001401,53.2151,230.5199,87.6722,272.443,8.3001e-05,1.033e-05,0.0,0 STARLINK-3931,1 52548U 22051R   24215.75233541  .00001033  00000-0  83001-4 0  9991,2 52548  53.2151 230.5199 0001401  87.6722 272.4430 15.08838345123294,6917.885,95.438,540.72,538.781,0.0
52548.0,STARLINK-3931,PAYLOAD,2024-08-03 05:11:04,15.08826593,0.0001463,53.2153,228.4382,85.6988,274.4171,1.8564e-05,7e-08,0.0,0 STARLINK-3931,1 52548U 22051R   24216.21602717  .00000007  00000-0  18564-4 0  9990,2 52548  53.2153 228.4382 0001463  85.6988 274.4171 15.08826593123438,6917.921,95.438,540.798,538.774,0.0
52548.0,STARLINK-3931,PAYLOAD,2024-08-03 14:43:28,15.08773804,0.000128,53.2153,226.6542,89.5659,270.548,-0.0004241,-7.019e-05,0.0,0 STARLINK-3931,1 52548U 22051R   24216.61351953 -.00007019  00000-0 -42410-3 0  9995,2 52548  53.2153 226.6542 0001280  89.5659 270.5480 15.08773804123426,6918.083,95.442,540.833,539.062,0.0
52548.0,STARLINK-3931,PAYLOAD,2024-08-03 17:54:09,15.08834166,0.0001479,53.2155,226.0593,85.2636,274.8525,6.4654e-05,7.41e-06,0.0,0 STARLINK-3931,1 52548U 22051R   24216.74594384  .00000741  00000-0  64654-4 0  9994,2 52548  53.2155 226.0593 0001479  85.2636 274.8525 15.08834166123512,6917.898,95.438,540.786,538.74,0.0
52548.0,STARLINK-3931,PAYLOAD,2024-08-04 08:12:37,15.08844077,0.0001459,53.2154,223.3827,85.6971,274.4188,7.8015e-05,9.54e-06,0.0,0 STARLINK-3931,1 52548U 22051R   24217.34209774  .00000954  00000-0  78015-4 0  9999,2 52548  53.2154 223.3827 0001459  85.6971 274.4188 15.08844077123608,6917.868,95.437,540.742,538.724,0.0
52548.0,STARLINK-3931,PAYLOAD,2024-08-04 17:44:55,15.0884581,0.0001461,53.2155,221.5985,85.7599,274.356,9.0953e-05,1.16e-05,0.0,0 STARLINK-3931,1 52548U 22051R   24217.73953582  .00001160  00000-0  90953-4 0  9990,2 52548  53.2155 221.5985 0001461  85.7599 274.3560 15.08845810123591,6917.863,95.437,540.738,538.717,0.0
52548.0,STARLINK-3931,PAYLOAD,2024-08-05 17:35:43,15.08846789,0.0001862,53.214,217.1368,88.9378,271.1828,0.00019657,2.842e-05,0.0,0 STARLINK-3931,1 52548U 22051R   24218.73313843  .00002842  00000-0  19657-3 0  9990,2 52548  53.2140 217.1368 0001862  88.9378 271.1828 15.08846789123819,6917.86,95.437,541.013,538.437,0.0
52548.0,STARLINK-3931,PAYLOAD,2024-08-06 04:43:26,15.08825549,0.0001446,53.2155,215.0559,92.8395,267.2763,-0.00016868,-2.97e-05,0.0,0 STARLINK-3931,1 52548U 22051R   24219.19682951 -.00002970  00000-0 -16868-3 0  9995,2 52548  53.2155 215.0559 0001446  92.8395 267.2763 15.08825549123887,6917.925,95.438,540.79,538.789,0.0
52548.0,STARLINK-3931,PAYLOAD,2024-08-06 06:18:49,15.08826699,0.0001434,53.2143,214.758,96.8192,263.2963,-0.00013326,-2.407e-05,0.0,0 STARLINK-3931,1 52548U 22051R   24219.26306929 -.00002407  00000-0 -13326-3 0  9992,2 52548  53.2143 214.7580 0001434  96.8192 263.2963 15.08826699123829,6917.921,95.438,540.778,538.794,0.0
52548.0,STARLINK-3931,PAYLOAD,2024-08-06 17:26:31,15.08826458,0.0001589,53.2159,212.6761,98.7217,261.3955,8.0223e-05,9.89e-06,0.0,0 STARLINK-3931,1 52548U 22051R   24219.72675400  .00000989  00000-0  80223-4 0  9998,2 52548  53.2159 212.6761 0001589  98.7217 261.3955 15.08826458123894,6917.922,95.438,540.886,538.688,0.0
52548.0,STARLINK-3931,PAYLOAD,2024-08-08 09:11:08,15.08863392,0.0001449,53.2149,205.2415,104.2653,255.85,0.00057333,8.854e-05,0.0,0 STARLINK-3931,1 52548U 22051R   24221.38273675  .00008854  00000-0  57333-3 0  9995,2 52548  53.2149 205.2415 0001449 104.2653 255.8500 15.08863392124140,6917.809,95.436,540.676,538.671,0.0
52548.0,STARLINK-3931,PAYLOAD,2024-08-09 05:51:09,15.08849432,0.0001355,53.2151,201.3766,94.4451,265.6696,6.3242e-05,7.19e-06,0.0,0 STARLINK-3931,1 52548U 22051R   24222.24385763  .00000719  00000-0  63242-4 0  9992,2 52548  53.2151 201.3766 0001355  94.4451 265.6696 15.08849432124347,6917.852,95.437,540.654,538.779,0.0
52548.0,STARLINK-3931,PAYLOAD,2024-08-09 21:45:00,15.08843171,0.0001674,53.2172,198.4057,105.435,254.6827,-0.00010927,-2.027e-05,0.0,0 STARLINK-3931,1 52548U 22051R   24222.90625945 -.00002027  00000-0 -10927-3 0  9991,2 52548  53.2172 198.4057 0001674 105.4350 254.6827 15.08843171124443,6917.871,95.437,540.894,538.578,0.0
52548.0,STARLINK-3931,PAYLOAD,2024-08-10 04:06:33,15.08838546,0.0001667,53.2167,197.214,98.9954,261.1227,-0.00021407,-3.693e-05,0.0,0 STARLINK-3931,1 52548U 22051R   24223.17122135 -.00003693  00000-0 -21407-3 0  9999,2 52548  53.2167 197.2140 0001667  98.9954 261.1227 15.08838546124419,6917.885,95.438,540.903,538.597,0.0
52548.0,STARLINK-3931,PAYLOAD,2024-08-11 02:21:57,15.08843159,0.0001768,53.2178,193.0514,94.4854,265.634,0.0001761,2.516e-05,0.0,0 STARLINK-3931,1 52548U 22051R   24224.09858262  .00002516  00000-0  17610-3 0  9990,2 52548  53.2178 193.0514 0001768  94.4854 265.6340 15.08843159124626,6917.871,95.437,540.959,538.513,0.0
52548.0,STARLINK-3931,PAYLOAD,2024-08-11 07:08:06,15.08854737,0.0001807,53.2162,192.1555,117.5321,242.5855,0.00041525,6.329e-05,0.0,0 STARLINK-3931,1 52548U 22051R   24224.29729633  .00006329  00000-0  41525-3 0  9999,2 52548  53.2162 192.1555 0001807 117.5321 242.5855 15.08854737124656,6917.835,95.437,540.95,538.45,0.0
52548.0,STARLINK-3931,PAYLOAD,2024-08-11 21:26:35,15.08838874,0.0001986,53.2171,189.4827,80.8259,279.2958,0.00019007,2.738e-05,0.0,0 STARLINK-3931,1 52548U 22051R   24224.89346809  .00002738  00000-0  19007-3 0  9995,2 52548  53.2171 189.4827 0001986  80.8259 279.2958 15.08838874124742,6917.884,95.438,541.123,538.375,0.0
52548.0,STARLINK-3931,PAYLOAD,2024-08-12 05:23:30,15.08856738,0.0001541,53.2155,187.9931,89.4919,270.625,0.00048956,7.515e-05,0.0,0 STARLINK-3931,1 52548U 22051R   24225.22465876  .00007515  00000-0  48956-3 0  9992,2 52548  53.2155 187.9931 0001541  89.4919 270.6250 15.08856738124792,6917.829,95.436,540.76,538.628,0.0
52548.0,STARLINK-3931,PAYLOAD,2024-08-12 06:58:53,15.08862005,0.0001498,53.2154,187.6967,87.6957,272.4207,0.0007313,0.00011377,0.0,0 STARLINK-3931,1 52548U 22051R   24225.29089761  .00011377  00000-0  73130-3 0  9997,2 52548  53.2154 187.6967 0001498  87.6957 272.4207 15.08862005124730,6917.813,95.436,540.714,538.642,0.0
52548.0,STARLINK-3931,PAYLOAD,2024-08-12 14:55:49,15.08855286,0.0001393,53.2151,186.2052,122.7589,237.3537,0.0004615,7.067e-05,0.0,0 STARLINK-3931,1 52548U 22051R   24225.62209507  .00007067  00000-0  46150-3 0  9999,2 52548  53.2151 186.2052 0001393 122.7589 237.3537 15.08855286124787,6917.834,95.437,540.662,538.735,0.0
52548.0,STARLINK-3931,PAYLOAD,2024-08-13 03:38:53,15.08865228,0.0001428,53.2144,183.8302,111.9807,248.1337,0.0007132,0.00011089,0.0,0 STARLINK-3931,1 52548U 22051R   24226.15201066  .00011089  00000-0  71320-3 0  9996,2 52548  53.2144 183.8302 0001428 111.9807 248.1337 15.08865228124934,6917.803,95.436,540.656,538.68,0.0
52548.0,STARLINK-3931,PAYLOAD,2024-08-13 06:49:39,15.08863418,0.0001636,53.2147,183.2339,112.9349,247.1816,0.00053091,8.177e-05,0.0,0 STARLINK-3931,1 52548U 22051R   24226.28448846  .00008177  00000-0  53091-3 0  9998,2 52548  53.2147 183.2339 0001636 112.9349 247.1816 15.08863418124888,6917.809,95.436,540.806,538.542,0.0
52548.0,STARLINK-3931,PAYLOAD,2024-08-14 03:29:41,15.08826621,0.000123,53.2148,179.373,86.5156,273.5977,-0.00018843,-3.284e-05,0.0,0 STARLINK-3931,1 52548U 22051R   24227.14562267 -.00003284  00000-0 -18843-3 0  9990,2 52548  53.2148 179.3730 0001230  86.5156 273.5977 15.08826621125081,6917.921,95.438,540.637,538.935,0.0
52548.0,STARLINK-3931,PAYLOAD,2024-08-14 06:40:28,15.08826483,0.0001392,53.2155,178.7735,95.9535,264.1615,-4.6672e-05,-1.03e-05,0.0,0 STARLINK-3931,1 52548U 22051R   24227.27810401 -.00001030  00000-0 -46672-4 0  9999,2 52548  53.2155 178.7735 0001392  95.9535 264.1615 15.08826483125037,6917.922,95.438,540.75,538.824,0.0
52548.0,STARLINK-3931,PAYLOAD,2024-08-15 01:45:06,15.08836515,0.0001312,53.2141,175.2082,87.2863,272.828,0.00053883,8.297e-05,0.0,0 STARLINK-3931,1 52548U 22051R   24228.07298983  .00008297  00000-0  53883-3 0  9994,2 52548  53.2141 175.2082 0001312  87.2863 272.8280 15.08836515125221,6917.891,95.438,540.664,538.848,0.0
52548.0,STARLINK-3931,PAYLOAD,2024-08-16 01:35:53,15.0884457,0.0001327,53.2146,170.7494,84.8274,275.287,0.0003488,5.268e-05,0.0,0 STARLINK-3931,1 52548U 22051R   24229.06659025  .00005268  00000-0  34880-3 0  9993,2 52548  53.2146 170.7494 0001327  84.8274 275.2870 15.08844570125376,6917.866,95.437,540.649,538.813,0.0
